STARLINK-32537          
1 61923U 24207M   26068.08050523  .00028705  00000+0  10489-2 0  9996
2 61923  42.9996 289.0978 0001558 273.0497  87.0176 15.27569636 74589
HAWK-11C                
1 62381U 24247E   26068.51221537  .00009223  00000+0  33290-3 0  9992
2 62381  45.0045 114.8762 0005900 329.7040  30.3502 15.28848020 67743
